[{"OBJECT_NAME":"TK-2","OBJECT_ID":"2022-031A","EPOCH":"2026-03-09T22:51:17.143200","MEAN_MOTION":15.02943491,"ECCENTRICITY":0.00164117,"INCLINATION":97.8366,"RA_OF_ASC_NODE":263.9365,"ARG_OF_PERICENTER":100.3205,"MEAN_ANOMALY":259.9871,"EPHEMERIS_TYPE":0,"CLASSIFICATION_TYPE":"U","NORAD_CAT_ID":52150,"ELEMENT_SET_NO":999,"REV_AT_EPOCH":21555,"BSTAR":0.00040164474,"MEAN_MOTION_DOT":5.349e-5,"MEAN_MOTION_DDOT":0},{"OBJECT_NAME":"STARLINK-36230","OBJECT_ID":"2025-298A","EPOCH":"2026-03-09T22:51:12.218400","MEAN_MOTION":14.99139706,"ECCENTRICITY":0.00028238,"INCLINATION":70.002,"RA_OF_ASC_NODE":13.9185,"ARG_OF_PERICENTER":257.4246,"MEAN_ANOMALY":102.6598,"EPHEMERIS_TYPE":0,"CLASSIFICATION_TYPE":"U","NORAD_CAT_ID":67075,"ELEMENT_SET_NO":999,"REV_AT_EPOCH":1325,"BSTAR":0.00033799472,"MEAN_MOTION_DOT":4.027e-5,"MEAN_MOTION_DDOT":0}]
